{
  "type": "FeatureCollection",
  "features": [
    {
      "type": "Feature",
      "properties": {
        "norad_id": 47052,
        "name": "COSMOS 2251 DEB",
        "group": "cosmos-2251-debris",
        "lat": -68.4497272513254,
        "lon": -48.90745193333361,
        "alt_km": 816.1085151528414,
        "timestamp": "2025-12-03T08:58:46.401541+00:00",
        "meta_object_name": "COSMOS 2251 DEB",
        "meta_object_id": "1993-036BXG",
        "meta_epoch": "2025-11-29T08:23:30.956640",
        "meta_mean_motion": 14.35450474,
        "meta_eccentricity": 0.00577024,
        "meta_inclination": 74.0487,
        "meta_ra_of_asc_node": 4.8695,
        "meta_arg_of_pericenter": 82.9608,
        "meta_mean_anomaly": 293.3927,
        "meta_ephemeris_type": 0,
        "meta_classification_type": "U",
        "meta_norad_cat_id": 47052,
        "meta_element_set_no": 999,
        "meta_rev_at_epoch": 61597,
        "meta_bstar": 0.00022809202,
        "meta_mean_motion_dot": 6.42e-06,
        "meta_mean_motion_ddot": 0,
        "tle_line1": "1 47052U 93036BXG 25333.34966385  .00000642  00000+0  22809-3 0  9994",
        "tle_line2": "2 47052  74.0487   4.8695 0057702  82.9608 293.3927 14.35450474615976"
      },
      "geometry": {
        "type": "Point",
        "coordinates": [
          -48.90745193333361,
          -68.4497272513254
        ]
      }
    },
    {
      "type": "Feature",
      "properties": {
        "norad_id": 47053,
        "name": "COSMOS 2251 DEB",
        "group": "cosmos-2251-debris",
        "lat": 73.97180425532703,
        "lon": 5.0628941306206325,
        "alt_km": 752.6868030815149,
        "timestamp": "2025-12-03T08:58:46.401551+00:00",
        "meta_object_name": "COSMOS 2251 DEB",
        "meta_object_id": "1993-036BXH",
        "meta_epoch": "2025-12-02T02:37:04.787616",
        "meta_mean_motion": 13.59615746,
        "meta_eccentricity": 0.03758539,
        "meta_inclination": 74.0601,
        "meta_ra_of_asc_node": 271.2609,
        "meta_arg_of_pericenter": 87.2254,
        "meta_mean_anomaly": 294.2026,
        "meta_ephemeris_type": 0,
        "meta_classification_type": "U",
        "meta_norad_cat_id": 47053,
        "meta_element_set_no": 999,
        "meta_rev_at_epoch": 28744,
        "meta_bstar": 0.0013831144,
        "meta_mean_motion_dot": 1.616e-05,
        "meta_mean_motion_ddot": 0,
        "tle_line1": "1 47053U 93036BXH 25336.10908319  .00001616  00000+0  13831-2 0  9991",
        "tle_line2": "2 47053  74.0601 271.2609 0375853  87.2254 294.2026 13.59615746287442"
      },
      "geometry": {
        "type": "Point",
        "coordinates": [
          5.0628941306206325,
          73.97180425532703
        ]
      }
    },
    {
      "type": "Feature",
      "properties": {
        "norad_id": 47059,
        "name": "COSMOS 2251 DEB",
        "group": "cosmos-2251-debris",
        "lat": -28.971726772483187,
        "lon": 84.03145202321095,
        "alt_km": 545.0624360827869,
        "timestamp": "2025-12-03T08:58:46.401561+00:00",
        "meta_object_name": "COSMOS 2251 DEB",
        "meta_object_id": "1993-036BXP",
        "meta_epoch": "2025-11-30T02:15:08.813664",
        "meta_mean_motion": 15.10829083,
        "meta_eccentricity": 0.00120344,
        "meta_inclination": 73.9823,
        "meta_ra_of_asc_node": 261.6801,
        "meta_arg_of_pericenter": 69.4658,
        "meta_mean_anomaly": 304.3449,
        "meta_ephemeris_type": 0,
        "meta_classification_type": "U",
        "meta_norad_cat_id": 47059,
        "meta_element_set_no": 999,
        "meta_rev_at_epoch": 8114,
        "meta_bstar": 0.003761596,
        "meta_mean_motion_dot": 0.00063166,
        "meta_mean_motion_ddot": 0,
        "tle_line1": "1 47059U 93036BXP 25334.09385201  .00063166  00000+0  37616-2 0  9997",
        "tle_line2": "2 47059  73.9823 261.6801 0012034  69.4658 304.3449 15.10829083 81149"
      },
      "geometry": {
        "type": "Point",
        "coordinates": [
          84.03145202321095,
          -28.971726772483187
        ]
      }
    },
    {
      "type": "Feature",
      "properties": {
        "norad_id": 47062,
        "name": "COSMOS 2251 DEB",
        "group": "cosmos-2251-debris",
        "lat": -61.374356111707236,
        "lon": 62.10650894787923,
        "alt_km": 922.4786166994345,
        "timestamp": "2025-12-03T08:58:46.401571+00:00",
        "meta_object_name": "COSMOS 2251 DEB",
        "meta_object_id": "1993-036BXS",
        "meta_epoch": "2025-11-30T14:51:43.416000",
        "meta_mean_motion": 13.71861812,
        "meta_eccentricity": 0.0323451,
        "meta_inclination": 74.0848,
        "meta_ra_of_asc_node": 98.1641,
        "meta_arg_of_pericenter": 226.4501,
        "meta_mean_anomaly": 143.6726,
        "meta_ephemeris_type": 0,
        "meta_classification_type": "U",
        "meta_norad_cat_id": 47062,
        "meta_element_set_no": 999,
        "meta_rev_at_epoch": 55436,
        "meta_bstar": 0.002328,
        "meta_mean_motion_dot": 3.04e-05,
        "meta_mean_motion_ddot": 0,
        "tle_line1": "1 47062U 93036BXS 25334.61925250  .00003040  00000+0  23280-2 0  9990",
        "tle_line2": "2 47062  74.0848  98.1641 0323451 226.4501 143.6726 13.71861812554369"
      },
      "geometry": {
        "type": "Point",
        "coordinates": [
          62.10650894787923,
          -61.374356111707236
        ]
      }
    },
    {
      "type": "Feature",
      "properties": {
        "norad_id": 47068,
        "name": "COSMOS 2251 DEB",
        "group": "cosmos-2251-debris",
        "lat": -14.012573412557776,
        "lon": 45.2555002599158,
        "alt_km": 725.2988397330219,
        "timestamp": "2025-12-03T08:58:46.401581+00:00",
        "meta_object_name": "COSMOS 2251 DEB",
        "meta_object_id": "1993-036BXY",
        "meta_epoch": "2025-12-02T10:36:17.215488",
        "meta_mean_motion": 14.53031403,
        "meta_eccentricity": 0.00184732,
        "meta_inclination": 74.0249,
        "meta_ra_of_asc_node": 222.9156,
        "meta_arg_of_pericenter": 310.4244,
        "meta_mean_anomaly": 49.5306,
        "meta_ephemeris_type": 0,
        "meta_classification_type": "U",
        "meta_norad_cat_id": 47068,
        "meta_element_set_no": 999,
        "meta_rev_at_epoch": 61607,
        "meta_bstar": 0.0011587159,
        "meta_mean_motion_dot": 4.77e-05,
        "meta_mean_motion_ddot": 0,
        "tle_line1": "1 47068U 93036BXY 25336.44186592  .00004770  00000+0  11587-2 0  9995",
        "tle_line2": "2 47068  74.0249 222.9156 0018473 310.4244  49.5306 14.53031403616072"
      },
      "geometry": {
        "type": "Point",
        "coordinates": [
          45.2555002599158,
          -14.012573412557776
        ]
      }
    },
    {
      "type": "Feature",
      "properties": {
        "norad_id": 47073,
        "name": "COSMOS 2251 DEB",
        "group": "cosmos-2251-debris",
        "lat": -7.020429758929528,
        "lon": 40.15214310310716,
        "alt_km": 841.5152271593415,
        "timestamp": "2025-12-03T08:58:46.401592+00:00",
        "meta_object_name": "COSMOS 2251 DEB",
        "meta_object_id": "1993-036BYD",
        "meta_epoch": "2025-11-28T23:48:38.837952",
        "meta_mean_motion": 14.04684181,
        "meta_eccentricity": 0.01626495,
        "meta_inclination": 74.0833,
        "meta_ra_of_asc_node": 225.7586,
        "meta_arg_of_pericenter": 267.1836,
        "meta_mean_anomaly": 91.0675,
        "meta_ephemeris_type": 0,
        "meta_classification_type": "U",
        "meta_norad_cat_id": 47073,
        "meta_element_set_no": 999,
        "meta_rev_at_epoch": 60168,
        "meta_bstar": 0.0003803633,
        "meta_mean_motion_dot": 6.6e-06,
        "meta_mean_motion_ddot": 0,
        "tle_line1": "1 47073U 93036BYD 25332.99211618  .00000660  00000+0  38036-3 0  9998",
        "tle_line2": "2 47073  74.0833 225.7586 0162649 267.1836  91.0675 14.04684181601680"
      },
      "geometry": {
        "type": "Point",
        "coordinates": [
          40.15214310310716,
          -7.020429758929528
        ]
      }
    },
    {
      "type": "Feature",
      "properties": {
        "norad_id": 47074,
        "name": "COSMOS 2251 DEB",
        "group": "cosmos-2251-debris",
        "lat": 24.77713928901498,
        "lon": -26.584535079192218,
        "alt_km": 683.5778565887049,
        "timestamp": "2025-12-03T08:58:46.401602+00:00",
        "meta_object_name": "COSMOS 2251 DEB",
        "meta_object_id": "1993-036BYE",
        "meta_epoch": "2025-11-16T21:16:13.914624",
        "meta_mean_motion": 14.35315626,
        "meta_eccentricity": 0.01424183,
        "meta_inclination": 74.0922,
        "meta_ra_of_asc_node": 355.9879,
        "meta_arg_of_pericenter": 30.5468,
        "meta_mean_anomaly": 146.7456,
        "meta_ephemeris_type": 0,
        "meta_classification_type": "U",
        "meta_norad_cat_id": 47074,
        "meta_element_set_no": 999,
        "meta_rev_at_epoch": 2311,
        "meta_bstar": 0.002262034,
        "meta_mean_motion_dot": 7.254e-05,
        "meta_mean_motion_ddot": 0,
        "tle_line1": "1 47074U 93036BYE 25320.88627216  .00007254  00000+0  22620-2 0  9996",
        "tle_line2": "2 47074  74.0922 355.9879 0142418  30.5468 146.7456 14.35315626 23116"
      },
      "geometry": {
        "type": "Point",
        "coordinates": [
          -26.584535079192218,
          24.77713928901498
        ]
      }
    }
  ]
}